{"type": "FeatureCollection", "features": [ {"type": "Feature", "properties": {"norad_id": 31381, "name": "FENGYUN 1C DEB", "group": "fengyun-1c-debris", "lat": -12.811580735257932, "lon": -110.32443776596926, "alt_km": 909.849147578826, "timestamp": "2025-12-14T05:42:18.742590+00:00", "meta": {"OBJECT_NAME": "FENGYUN 1C DEB", "OBJECT_ID": "1999-025BSM", "EPOCH": "2025-12-11T11:38:53.452032", "MEAN_MOTION": 14.37039994, "ECCENTRICITY": 0.01985983, "INCLINATION": 98.4925, "RA_OF_ASC_NODE": 68.9047, "ARG_OF_PERICENTER": 35.7153, "MEAN_ANOMALY": 325.7133, "EPHEMERIS_TYPE": 0, "CLASSIFICATION_TYPE": "U", "NORAD_CAT_ID": 31381, "ELEMENT_SET_NO": 999, "REV_AT_EPOCH": 97382, "BSTAR": 0.00046825027, "MEAN_MOTION_DOT": 1.693e-05, "MEAN_MOTION_DDOT": 0}, "tle": {"line1": "1 31381U 99025BSM 25345.48534088  .00001693  00000+0  46825-3 0  9996", "line2": "2 31381  98.4925  68.9047 0198598  35.7153 325.7133 14.37039994973825"}}, "geometry": {"type": "Point", "coordinates": [-110.32443776596926, -12.811580735257932]}}, {"type": "Feature", "properties": {"norad_id": 31383, "name": "FENGYUN 1C DEB", "group": "fengyun-1c-debris", "lat": 56.463898294745164, "lon": 36.23001944933135, "alt_km": 887.2764688625284, "timestamp": "2025-12-14T05:42:18.742601+00:00", "meta": {"OBJECT_NAME": "FENGYUN 1C DEB", "OBJECT_ID": "1999-025BSP", "EPOCH": "2025-12-09T02:34:44.796288", "MEAN_MOTION": 14.05688126, "ECCENTRICITY": 0.01079363, "INCLINATION": 99.068, "RA_OF_ASC_NODE": 45.0398, "ARG_OF_PERICENTER": 327.5363, "MEAN_ANOMALY": 61.476, "EPHEMERIS_TYPE": 0, "CLASSIFICATION_TYPE": "U", "NORAD_CAT_ID": 31383, "ELEMENT_SET_NO": 999, "REV_AT_EPOCH": 95318, "BSTAR": 0.0010265056, "MEAN_MOTION_DOT": 1.718e-05, "MEAN_MOTION_DDOT": 0}, "tle": {"line1": "1 31383U 99025BSP 25343.10746292  .00001718  00000+0  10265-2 0  9993", "line2": "2 31383  99.0680  45.0398 0107936 327.5363  61.4760 14.05688126953187"}}, "geometry": {"type": "Point", "coordinates": [36.23001944933135, 56.463898294745164]}}, {"type": "Feature", "properties": {"norad_id": 31384, "name": "FENGYUN 1C DEB", "group": "fengyun-1c-debris", "lat": 4.965131095988323, "lon": -46.57572976984136, "alt_km": 668.2149534394912, "timestamp": "2025-12-14T05:42:18.742611+00:00", "meta": {"OBJECT_NAME": "FENGYUN 1C DEB", "OBJECT_ID": "1999-025BSQ", "EPOCH": "2025-12-08T04:13:31.416384", "MEAN_MOTION": 13.86050931, "ECCENTRICITY": 0.04406196, "INCLINATION": 98.4582, "RA_OF_ASC_NODE": 308.6672, "ARG_OF_PERICENTER": 54.2034, "MEAN_ANOMALY": 322.9436, "EPHEMERIS_TYPE": 0, "CLASSIFICATION_TYPE": "U", "NORAD_CAT_ID": 31384, "ELEMENT_SET_NO": 999, "REV_AT_EPOCH": 92961, "BSTAR": 0.0028698607, "MEAN_MOTION_DOT": 7.083e-05, "MEAN_MOTION_DDOT": 0}, "tle": {"line1": "1 31384U 99025BSQ 25342.17605806  .00007083  00000+0  28699-2 0  9996", "line2": "2 31384  98.4582 308.6672 0440619  54.2034 322.9436 13.86050931929613"}}, "geometry": {"type": "Point", "coordinates": [-46.57572976984136, 4.965131095988323]}}, {"type": "Feature", "properties": {"norad_id": 31385, "name": "FENGYUN 1C DEB", "group": "fengyun-1c-debris", "lat": 64.57694433840679, "lon": -82.16079278656422, "alt_km": 694.0023088953158, "timestamp": "2025-12-14T05:42:18.742622+00:00", "meta": {"OBJECT_NAME": "FENGYUN 1C DEB", "OBJECT_ID": "1999-025BSR", "EPOCH": "2025-12-11T12:25:21.129888", "MEAN_MOTION": 14.43996087, "ECCENTRICITY": 0.01346934, "INCLINATION": 98.9541, "RA_OF_ASC_NODE": 75.6054, "ARG_OF_PERICENTER": 59.1958, "MEAN_ANOMALY": 321.1651, "EPHEMERIS_TYPE": 0, "CLASSIFICATION_TYPE": "U", "NORAD_CAT_ID": 31385, "ELEMENT_SET_NO": 999, "REV_AT_EPOCH": 98597, "BSTAR": 0.00023196707, "MEAN_MOTION_DOT": 8.32e-06, "MEAN_MOTION_DDOT": 0}, "tle": {"line1": "1 31385U 99025BSR 25345.51760567  .00000832  00000+0  23197-3 0  9998", "line2": "2 31385  98.9541  75.6054 0134693  59.1958 321.1651 14.43996087985976"}}, "geometry": {"type": "Point", "coordinates": [-82.16079278656422, 64.57694433840679]}}, {"type": "Feature", "properties": {"norad_id": 31386, "name": "FENGYUN 1C DEB", "group": "fengyun-1c-debris", "lat": -31.740224608965253, "lon": 177.7204409115575, "alt_km": 892.2561793195564, "timestamp": "2025-12-14T05:42:18.742632+00:00", "meta": {"OBJECT_NAME": "FENGYUN 1C DEB", "OBJECT_ID": "1999-025BSS", "EPOCH": "2025-12-13T11:20:22.698816", "MEAN_MOTION": 13.86036587, "ECCENTRICITY": 0.01977666, "INCLINATION": 98.4411, "RA_OF_ASC_NODE": 2.3003, "ARG_OF_PERICENTER": 282.3109, "MEAN_ANOMALY": 75.5973, "EPHEMERIS_TYPE": 0, "CLASSIFICATION_TYPE": "U", "NORAD_CAT_ID": 31386, "ELEMENT_SET_NO": 999, "REV_AT_EPOCH": 93872, "BSTAR": 0.003047476, "MEAN_MOTION_DOT": 4.051e-05, "MEAN_MOTION_DDOT": 0}, "tle": {"line1": "1 31386U 99025BSS 25347.47248494  .00004051  00000+0  30475-2 0  9999", "line2": "2 31386  98.4411   2.3003 0197766 282.3109  75.5973 13.86036587938721"}}, "geometry": {"type": "Point", "coordinates": [177.7204409115575, -31.740224608965253]}}, {"type": "Feature", "properties": {"norad_id": 31387, "name": "FENGYUN 1C DEB", "group": "fengyun-1c-debris", "lat": 0.5138201652970148, "lon": -133.34539494357296, "alt_km": 1019.5494978969245, "timestamp": "2025-12-14T05:42:18.742642+00:00", "meta": {"OBJECT_NAME": "FENGYUN 1C DEB", "OBJECT_ID": "1999-025BST", "EPOCH": "2025-12-12T21:25:30.712512", "MEAN_MOTION": 14.13569998, "ECCENTRICITY": 0.02417277, "INCLINATION": 99.1682, "RA_OF_ASC_NODE": 225.358, "ARG_OF_PERICENTER": 170.8179, "MEAN_ANOMALY": 189.7533, "EPHEMERIS_TYPE": 0, "CLASSIFICATION_TYPE": "U", "NORAD_CAT_ID": 31387, "ELEMENT_SET_NO": 999, "REV_AT_EPOCH": 96299, "BSTAR": 0.00029914626, "MEAN_MOTION_DOT": 6.96e-06, "MEAN_MOTION_DDOT": 0}, "tle": {"line1": "1 31387U 99025BST 25346.89271658  .00000696  00000+0  29915-3 0  9992", "line2": "2 31387  99.1682 225.3580 0241727 170.8179 189.7533 14.13569998962996"}}, "geometry": {"type": "Point", "coordinates": [-133.34539494357296, 0.5138201652970148]}}, {"type": "Feature", "properties": {"norad_id": 31388, "name": "FENGYUN 1C DEB", "group": "fengyun-1c-debris", "lat": -8.589861929979607, "lon": 154.82099428798705, "alt_km": 838.8484189224273, "timestamp": "2025-12-14T05:42:18.742655+00:00", "meta": {"OBJECT_NAME": "FENGYUN 1C DEB", "OBJECT_ID": "1999-025BSU", "EPOCH": "2025-12-10T22:28:10.240896", "MEAN_MOTION": 14.07424902, "ECCENTRICITY": 0.0046406, "INCLINATION": 98.8049, "RA_OF_ASC_NODE": 332.9458, "ARG_OF_PERICENTER": 206.1162, "MEAN_ANOMALY": 184.0725, "EPHEMERIS_TYPE": 0, "CLASSIFICATION_TYPE": "U", "NORAD_CAT_ID": 31388, "ELEMENT_SET_NO": 999, "REV_AT_EPOCH": 96416, "BSTAR": 0.00012078, "MEAN_MOTION_DOT": 1.62e-06, "MEAN_MOTION_DDOT": 0}, "tle": {"line1": "1 31388U 99025BSU 25344.93622964  .00000162  00000+0  12078-3 0  9996", "line2": "2 31388  98.8049 332.9458 0046406 206.1162 184.0725 14.07424902964161"}}, "geometry": {"type": "Point", "coordinates": [154.82099428798705, -8.589861929979607]}}, {"type": "Feature", "properties": {"norad_id": 31389, "name": "FENGYUN 1C DEB", "group": "fengyun-1c-debris", "lat": 43.631307231304014, "lon": 145.0363277763031, "alt_km": 701.3622051738712, "timestamp": "2025-12-14T05:42:18.742666+00:00", "meta": {"OBJECT_NAME": "FENGYUN 1C DEB", "OBJECT_ID": "1999-025BSV", "EPOCH": "2025-12-13T09:52:46.171200", "MEAN_MOTION": 14.61075028, "ECCENTRICITY": 0.00287317, "INCLINATION": 99.0422, "RA_OF_ASC_NODE": 152.8666, "ARG_OF_PERICENTER": 187.0588, "MEAN_ANOMALY": 194.9419, "EPHEMERIS_TYPE": 0, "CLASSIFICATION_TYPE": "U", "NORAD_CAT_ID": 31389, "ELEMENT_SET_NO": 999, "REV_AT_EPOCH": 96507, "BSTAR": 0.0084752005, "MEAN_MOTION_DOT": 0.00042082, "MEAN_MOTION_DDOT": 0}, "tle": {"line1": "1 31389U 99025BSV 25347.41164550  .00042082  00000+0  84752-2 0  9999", "line2": "2 31389  99.0422 152.8666 0028731 187.0588 194.9419 14.61075028965072"}}, "geometry": {"type": "Point", "coordinates": [145.0363277763031, 43.631307231304014]}}, {"type": "Feature", "properties": {"norad_id": 31410, "name": "FENGYUN 1C DEB", "group": "fengyun-1c-debris", "lat": 52.03466843233927, "lon": 138.35247860659666, "alt_km": 788.8572393462828, "timestamp": "2025-12-14T05:42:18.742676+00:00", "meta": {"OBJECT_NAME": "FENGYUN 1C DEB", "OBJECT_ID": "1999-025BSW", "EPOCH": "2025-12-13T09:39:12.873312", "MEAN_MOTION": 14.44775047, "ECCENTRICITY": 0.01107159, "INCLINATION": 98.8337, "RA_OF_ASC_NODE": 148.9799, "ARG_OF_PERICENTER": 284.7101, "MEAN_ANOMALY": 104.2856, "EPHEMERIS_TYPE": 0, "CLASSIFICATION_TYPE": "U", "NORAD_CAT_ID": 31410, "ELEMENT_SET_NO": 999, "REV_AT_EPOCH": 97761, "BSTAR": 0.001382513, "MEAN_MOTION_DOT": 5.126e-05, "MEAN_MOTION_DDOT": 0}, "tle": {"line1": "1 31410U 99025BSW 25347.40223233  .00005126  00000+0  13825-2 0  9998", "line2": "2 31410  98.8337 148.9799 0110715 284.7101 104.2856 14.44775047977613"}}, "geometry": {"type": "Point", "coordinates": [138.35247860659666, 52.03466843233927]}}, {"type": "Feature", "properties": {"norad_id": 31411, "name": "FENGYUN 1C DEB", "group": "fengyun-1c-debris", "lat": 74.84014853606813, "lon": 15.234990678213203, "alt_km": 862.9648295315264, "timestamp": "2025-12-14T05:42:18.742686+00:00", "meta": {"OBJECT_NAME": "FENGYUN 1C DEB", "OBJECT_ID": "1999-025BSX", "EPOCH": "2025-12-12T03:02:30.870816", "MEAN_MOTION": 14.27987029, "ECCENTRICITY": 0.01006421, "INCLINATION": 98.6694, "RA_OF_ASC_NODE": 47.4115, "ARG_OF_PERICENTER": 256.6303, "MEAN_ANOMALY": 135.2131, "EPHEMERIS_TYPE": 0, "CLASSIFICATION_TYPE": "U", "NORAD_CAT_ID": 31411, "ELEMENT_SET_NO": 999, "REV_AT_EPOCH": 94471, "BSTAR": 0.00074843103, "MEAN_MOTION_DOT": 1.915e-05, "MEAN_MOTION_DDOT": 0}, "tle": {"line1": "1 31411U 99025BSX 25346.12674619  .00001915  00000+0  74843-3 0  9995", "line2": "2 31411  98.6694  47.4115 0100642 256.6303 135.2131 14.27987029944714"}}, "geometry": {"type": "Point", "coordinates": [15.234990678213203, 74.84014853606813]}}]}